{"fetched_at":"2026-07-10T07:58:41.598Z","source":"https://celestrak.org/NORAD/elements/gp.php?GROUP=oneweb&FORMAT=JSON","constellation":"oneweb","records":[{"OBJECT_NAME":"ONEWEB-0403","OBJECT_ID":"2021-132Q","EPOCH":"2026-07-09T15:41:17.321280","CLASSIFICATION_TYPE":"U","MEAN_MOTION":13.18686511,"ECCENTRICITY":0.0001833,"INCLINATION":87.9189,"RA_OF_ASC_NODE":330.9877,"ARG_OF_PERICENTER":92.584,"MEAN_ANOMALY":267.5502,"EPHEMERIS_TYPE":0,"NORAD_CAT_ID":50483,"ELEMENT_SET_NO":999,"REV_AT_EPOCH":22455,"BSTAR":0.0000014677,"MEAN_MOTION_DOT":1.3e-7,"MEAN_MOTION_DDOT":0},{"OBJECT_NAME":"ONEWEB-0404","OBJECT_ID":"2021-132R","EPOCH":"2026-07-09T18:18:21.429792","CLASSIFICATION_TYPE":"U","MEAN_MOTION":13.11414368,"ECCENTRICITY":0.0001952,"INCLINATION":87.8888,"RA_OF_ASC_NODE":16.5725,"ARG_OF_PERICENTER":79.3745,"MEAN_ANOMALY":280.7603,"EPHEMERIS_TYPE":0,"NORAD_CAT_ID":50484,"ELEMENT_SET_NO":999,"REV_AT_EPOCH":21865,"BSTAR":-0.00073908,"MEAN_MOTION_DOT":-0.00000249,"MEAN_MOTION_DDOT":0},{"OBJECT_NAME":"ONEWEB-0405","OBJECT_ID":"2021-132S","EPOCH":"2026-07-09T16:00:41.815296","CLASSIFICATION_TYPE":"U","MEAN_MOTION":13.18683913,"ECCENTRICITY":0.0002335,"INCLINATION":87.919,"RA_OF_ASC_NODE":330.9705,"ARG_OF_PERICENTER":100.1253,"MEAN_ANOMALY":260.0143,"EPHEMERIS_TYPE":0,"NORAD_CAT_ID":50485,"ELEMENT_SET_NO":999,"REV_AT_EPOCH":22495,"BSTAR":0.0001494,"MEAN_MOTION_DOT":7.2e-7,"MEAN_MOTION_DDOT":0},{"OBJECT_NAME":"ONEWEB-0406","OBJECT_ID":"2021-132T","EPOCH":"2026-07-09T15:48:33.988608","CLASSIFICATION_TYPE":"U","MEAN_MOTION":13.18686406,"ECCENTRICITY":0.0001879,"INCLINATION":87.9186,"RA_OF_ASC_NODE":330.987,"ARG_OF_PERICENTER":81.192,"MEAN_ANOMALY":278.9425,"EPHEMERIS_TYPE":0,"NORAD_CAT_ID":50486,"ELEMENT_SET_NO":999,"REV_AT_EPOCH":22458,"BSTAR":0.000019402,"MEAN_MOTION_DOT":2.1e-7,"MEAN_MOTION_DDOT":0},{"OBJECT_NAME":"ONEWEB-0407","OBJECT_ID":"2021-132U","EPOCH":"2026-07-09T15:38:50.682336","CLASSIFICATION_TYPE":"U","MEAN_MOTION":13.18688005,"ECCENTRICITY":0.000188,"INCLINATION":87.9192,"RA_OF_ASC_NODE":330.9814,"ARG_OF_PERICENTER":103.9526,"MEAN_ANOMALY":256.1815,"EPHEMERIS_TYPE":0,"NORAD_CAT_ID":50487,"ELEMENT_SET_NO":999,"REV_AT_EPOCH":22452,"BSTAR":0.000048734,"MEAN_MOTION_DOT":3.2e-7,"MEAN_MOTION_DDOT":0},{"OBJECT_NAME":"ONEWEB-0409","OBJECT_ID":"2021-132V","EPOCH":"2026-07-08T22:07:22.802016","CLASSIFICATION_TYPE":"U","MEAN_MOTION":13.11414776,"ECCENTRICITY":0.00020317,"INCLINATION":87.8883,"RA_OF_ASC_NODE":16.7277,"ARG_OF_PERICENTER":83.2345,"MEAN_ANOMALY":276.9014,"EPHEMERIS_TYPE":0,"NORAD_CAT_ID":50488,"ELEMENT_SET_NO":999,"REV_AT_EPOCH":21843,"BSTAR":-0.00084063252,"MEAN_MOTION_DOT":-0.00000285,"MEAN_MOTION_DDOT":0},{"OBJECT_NAME":"ONEWEB-0412","OBJECT_ID":"2021-132W","EPOCH":"2026-07-09T15:21:51.556320","CLASSIFICATION_TYPE":"U","MEAN_MOTION":13.18686442,"ECCENTRICITY":0.0001589,"INCLINATION":87.9188,"RA_OF_ASC_NODE":330.9915,"ARG_OF_PERICENTER":102.0679,"MEAN_ANOMALY":258.0631,"EPHEMERIS_TYPE":0,"NORAD_CAT_ID":50489,"ELEMENT_SET_NO":999,"REV_AT_EPOCH":22461,"BSTAR":0.000043614,"MEAN_MOTION_DOT":3e-7,"MEAN_MOTION_DDOT":0},{"OBJECT_NAME":"ONEWEB-0413","OBJECT_ID":"2021-132X","EPOCH":"2026-07-09T15:29:08.742912","CLASSIFICATION_TYPE":"U","MEAN_MOTION":13.18687292,"ECCENTRICITY":0.0001709,"INCLINATION":87.9178,"RA_OF_ASC_NODE":330.9873,"ARG_OF_PERICENTER":106.0038,"MEAN_ANOMALY":254.1282,"EPHEMERIS_TYPE":0,"NORAD_CAT_ID":50490,"ELEMENT_SET_NO":999,"REV_AT_EPOCH":22455,"BSTAR":-0.000018049,"MEAN_MOTION_DOT":6e-8,"MEAN_MOTION_DDOT":0},{"OBJECT_NAME":"ONEWEB-0414","OBJECT_ID":"2021-132Y","EPOCH":"2026-07-09T15:07:17.462208","CLASSIFICATION_TYPE":"U","MEAN_MOTION":13.18686828,"ECCENTRICITY":0.0001723,"INCLINATION":87.9191,"RA_OF_ASC_NODE":330.9741,"ARG_OF_PERICENTER":97.665,"MEAN_ANOMALY":262.4677,"EPHEMERIS_TYPE":0,"NORAD_CAT_ID":50491,"ELEMENT_SET_NO":999,"REV_AT_EPOCH":22458,"BSTAR":0.00012092,"MEAN_MOTION_DOT":6.1e-7,"MEAN_MOTION_DDOT":0},{"OBJECT_NAME":"ONEWEB-0417","OBJECT_ID":"2021-132Z","EPOCH":"2026-07-09T15:19:25.633632","CLASSIFICATION_TYPE":"U","MEAN_MOTION":13.1868714,"ECCENTRICITY":0.0001903,"INCLINATION":87.9182,"RA_OF_ASC_NODE":330.9908,"ARG_OF_PERICENTER":89.694,"MEAN_ANOMALY":270.441,"EPHEMERIS_TYPE":0,"NORAD_CAT_ID":50492,"ELEMENT_SET_NO":999,"REV_AT_EPOCH":22456,"BSTAR":0.00010665,"MEAN_MOTION_DOT":5.5e-7,"MEAN_MOTION_DDOT":0},{"OBJECT_NAME":"ONEWEB-0418","OBJECT_ID":"2021-132AA","EPOCH":"2026-07-09T15:33:47.678400","CLASSIFICATION_TYPE":"U","MEAN_MOTION":13.18685871,"ECCENTRICITY":0.0001947,"INCLINATION":87.9185,"RA_OF_ASC_NODE":330.9896,"ARG_OF_PERICENTER":89.3039,"MEAN_ANOMALY":270.8316,"EPHEMERIS_TYPE":0,"NORAD_CAT_ID":50493,"ELEMENT_SET_NO":999,"REV_AT_EPOCH":22462,"BSTAR":0.000052943,"MEAN_MOTION_DOT":3.4e-7,"MEAN_MOTION_DDOT":0},{"OBJECT_NAME":"ONEWEB-0419","OBJECT_ID":"2021-132AB","EPOCH":"2026-07-09T16:01:04.237824","CLASSIFICATION_TYPE":"U","MEAN_MOTION":13.1866614,"ECCENTRICITY":0.000215,"INCLINATION":87.9189,"RA_OF_ASC_NODE":330.9864,"ARG_OF_PERICENTER":94.6508,"MEAN_ANOMALY":265.487,"EPHEMERIS_TYPE":0,"NORAD_CAT_ID":50494,"ELEMENT_SET_NO":999,"REV_AT_EPOCH":22454,"BSTAR":0.0001155,"MEAN_MOTION_DOT":5.8e-7,"MEAN_MOTION_DDOT":0},{"OBJECT_NAME":"ONEWEB-0420","OBJECT_ID":"2021-132AC","EPOCH":"2026-07-09T15:09:41.942880","CLASSIFICATION_TYPE":"U","MEAN_MOTION":13.18687706,"ECCENTRICITY":0.0001918,"INCLINATION":87.9181,"RA_OF_ASC_NODE":330.9939,"ARG_OF_PERICENTER":104.0707,"MEAN_ANOMALY":256.0638,"EPHEMERIS_TYPE":0,"NORAD_CAT_ID":50495,"ELEMENT_SET_NO":999,"REV_AT_EPOCH":22453,"BSTAR":0.00012597,"MEAN_MOTION_DOT":6.3e-7,"MEAN_MOTION_DDOT":0},{"OBJECT_NAME":"ONEWEB-0421","OBJECT_ID":"2021-132AD","EPOCH":"2026-07-09T15:00:00.819936","CLASSIFICATION_TYPE":"U","MEAN_MOTION":13.18608134,"ECCENTRICITY":0.0001306,"INCLINATION":87.9186,"RA_OF_ASC_NODE":330.9935,"ARG_OF_PERICENTER":109.0068,"MEAN_ANOMALY":251.1206,"EPHEMERIS_TYPE":0,"NORAD_CAT_ID":50496,"ELEMENT_SET_NO":999,"REV_AT_EPOCH":22457,"BSTAR":0.036815,"MEAN_MOTION_DOT":0.00014534,"MEAN_MOTION_DDOT":0},{"OBJECT_NAME":"ONEWEB-0424","OBJECT_ID":"2021-132AE","EPOCH":"2026-07-09T15:53:25.780416","CLASSIFICATION_TYPE":"U","MEAN_MOTION":13.18622331,"ECCENTRICITY":0.0002488,"INCLINATION":87.9186,"RA_OF_ASC_NODE":330.9854,"ARG_OF_PERICENTER":105.2254,"MEAN_ANOMALY":254.9154,"EPHEMERIS_TYPE":0,"NORAD_CAT_ID":50497,"ELEMENT_SET_NO":999,"REV_AT_EPOCH":22460,"BSTAR":0.03076,"MEAN_MOTION_DOT":0.00012145,"MEAN_MOTION_DDOT":0},{"OBJECT_NAME":"ONEWEB-0426","OBJECT_ID":"2021-132AF","EPOCH":"2026-07-09T14:53:56.382144","CLASSIFICATION_TYPE":"U","MEAN_MOTION":13.18685785,"ECCENTRICITY":0.0001501,"INCLINATION":87.9187,"RA_OF_ASC_NODE":330.9851,"ARG_OF_PERICENTER":74.1664,"MEAN_ANOMALY":285.9633,"EPHEMERIS_TYPE":0,"NORAD_CAT_ID":50498,"ELEMENT_SET_NO":999,"REV_AT_EPOCH":22454,"BSTAR":0.0000097901,"MEAN_MOTION_DOT":1.7e-7,"MEAN_MOTION_DDOT":0}]}
